CUBEBUG-2 (LO-74)       
1 39440U 13066AA  26198.60635634  .00001948  00000+0  18322-3 0  9995
2 39440  97.8919 147.7205 0055601 287.2018  72.3120 14.93976531681532
FUNCUBE-1 (AO-73)       
1 39444U 13066AE  26198.34715985  .00004168  00000+0  25766-3 0  9995
2 39444  97.8294 170.4330 0037942 100.7078 259.8426 15.09834376684214
UWE-3                   
1 39446U 13066AG  26198.35863992  .00002054  00000+0  17893-3 0  9994
2 39446  97.8718 154.6426 0047589 217.0557 142.7376 14.97207851682095
UNISAT-6                
1 40012U 14033C   26198.25284144  .00001050  00000+0  11750-3 0  9996
2 40012  97.7911 350.4435 0044023 330.8621  29.0140 14.88371050650636
DUCHIFAT-1              
1 40021U 14033M   26197.69874411  .00099153  00000+0  77546-3 0  9991
2 40021  98.0414 261.1627 0002786 236.8489 123.2505 15.71313651660376
QB50P1                  
1 40025U 14033R   26198.00121204  .00004208  00000+0  20647-3 0  9993
2 40025  98.0964 211.2472 0010459 119.5295 240.6982 15.18681575657555
LILACSAT-2              
1 40908U 15049K   26198.70555667  .00010807  00000+0  17839-3 0  9993
2 40908  97.4621 236.7225 0008502 134.2405 225.9546 15.52415357600482
FOX-1A (AO-85)          
1 40967U 15058D   26198.66898422  .00001551  00000+0  14739-3 0  9994
2 40967  64.7726 184.2446 0132567  44.8704 316.3033 14.91096654118116
CAS-2T & KS-1Q          
1 41847U 16066G   26198.15953041  .00000472  00000+0  74643-4 0  9997
2 41847  98.3813 273.5527 0342143  38.8094 323.7141 14.44772533509126
RADFXSAT (FOX-1B)       
1 43017U 17073E   26198.56599502  .00003831  00000+0  16851-3 0  9998
2 43017  97.4662  65.1618 0148332 223.2065 135.7454 15.13080744469987
DIWATA-2B               
1 43678U 18084H   26198.71155925  .00000907  00000+0  76984-4 0  9993
2 43678  98.1211  36.2564 0012683  76.7086 283.5550 15.00568417420799
ES'HAIL 2               
1 43700U 18090A   26198.74055257  .00000135  00000+0  00000+0 0  9990
2 43700   0.0138  73.7247 0002319  84.7094  69.4946  1.00272417 27983
FOX-1CLIFF (AO-95)      
1 43770U 18099N   26198.41757722  .00005742  00000+0  21739-3 0  9991
2 43770  97.4364 258.5624 0007428 230.6707 129.3874 15.27300598417831
ITASAT                  
1 43786U 18099AE  26198.58277241  .00002956  00000+0  14271-3 0  9996
2 43786  97.4008 249.4921 0010994 240.9559 119.0575 15.19397594417526
JY1SAT (JO-97)          
1 43803U 18099AX  26198.62130861  .00009074  00000+0  27313-3 0  9996
2 43803  97.4108 261.5784 0007057 150.8964 209.2673 15.34566538418293
UWE-4                   
1 43880U 18111E   26198.74427190  .00018314  00000+0  35266-3 0  9996
2 43880  97.5840 128.5854 0006528 184.7413 175.3776 15.47920542415500
TIANYAN 01              
1 44881U 19093C   26198.67147782  .00000255  00000+0  34819-4 0  9995
2 44881  97.7519 270.1585 0013376 353.2868   6.8167 14.86561363355945
RS-44 & BREEZE-KM R/B   
1 44909U 19096E   26198.57377628  .00000020  00000+0  28150-4 0  9993
2 44909  82.5243 319.5142 0218494  73.4624 289.0355 12.79748887306238
SALSAT                  
1 46495U 20068K   26197.96833821  .00003909  00000+0  13663-3 0  9991
2 46495  97.8858 202.8562 0009384 186.4299 173.6821 15.30186484319914
XW-3 (CAS-9)            
1 50466U 21131B   26198.73759119  .00000355  00000+0  12324-3 0  9994
2 50466  98.4991 290.9625 0004443  23.9506 336.1889 14.41383414239517
GREENCUBE (IO-117)      
1 53109U 22080E   26198.22212605 -.00000003  00000+0  00000+0 0  9998
2 53109  70.1407 287.8015 0009072 282.9900  76.9746  6.42583336 93997
UMKA 1 (RS40S)          
1 57172U 23091G   26198.68562038  .00002961  00000+0  13595-3 0  9994
2 57172  97.5031 257.2692 0012789  21.1531 339.0231 15.21136434168648
CUBESX-HSE 3 (RS42S)    
1 57178U 23091N   26198.61927919  .00006498  00000+0  21320-3 0  9990
2 57178  97.5072 264.6042 0009405 353.1084   7.0026 15.31918639169081
MONITOR-3 (RS58S)       
1 57180U 23091Q   26198.71239676  .00005174  00000+0  18964-3 0  9990
2 57180  97.5063 262.3921 0010719   0.6984 359.4268 15.28400028168959
MONITOR-4 (RS57S)       
1 57182U 23091S   26198.68975051  .00005084  00000+0  18589-3 0  9995
2 57182  97.5057 262.3422 0010732   1.0952 359.0309 15.28486920168952
MONITOR-2 (RS39S)       
1 57184U 23091U   26198.67994102  .00002217  00000+0  10862-3 0  9995
2 57184  97.5053 256.7680 0011141  15.6720 344.4857 15.19166555168586
SVYATOBOR 1 (RS60S)     
1 57187U 23091X   26198.66444962  .00004364  00000+0  16699-3 0  9990
2 57187  97.5071 262.6576 0008487 355.7821   4.3345 15.27085867168969
VIZARD-METEO (RS38S)    
1 57189U 23091Z   26198.69120775  .00008613  00000+0  24080-3 0  9992
2 57189  97.5074 268.8059 0005461 329.1302  30.9620 15.36920620169378
POLYTECH-UNIVERSE 3 (R*)
1 57191U 23091AB  26198.70297579  .00002525  00000+0  12232-3 0  9996
2 57191  97.5028 256.2951 0015838  29.4144 330.7979 15.19379612168585
UTMN 2 (RS27S)          
1 57203U 23091AP  26198.62048499  .00006430  00000+0  20584-3 0  9994
2 57203  97.5069 266.2761 0006504 340.7544  19.3451 15.32735350169202
