OBJECT_NAME,OBJECT_ID,EPOCH,MEAN_MOTION,ECCENTRICITY,INCLINATION,RA_OF_ASC_NODE,ARG_OF_PERICENTER,MEAN_ANOMALY,EPHEMERIS_TYPE,CLASSIFICATION_TYPE,NORAD_CAT_ID,ELEMENT_SET_NO,REV_AT_EPOCH,BSTAR,MEAN_MOTION_DOT,MEAN_MOTION_DDOT
CUBEBUG-2 (LO-74),2013-066AA,2026-07-17T14:33:09.187776,14.93976531,.0055601,97.8919,147.7205,287.2018,72.3120,0,U,39440,999,68153,.18322E-3,.1948E-4,0
FUNCUBE-1 (AO-73),2013-066AE,2026-07-17T08:19:54.611040,15.09834376,.0037942,97.8294,170.4330,100.7078,259.8426,0,U,39444,999,68421,.25766E-3,.4168E-4,0
UWE-3,2013-066AG,2026-07-17T08:36:26.489088,14.97207851,.0047589,97.8718,154.6426,217.0557,142.7376,0,U,39446,999,68209,.17893E-3,.2054E-4,0
UNISAT-6,2014-033C,2026-07-17T06:04:05.500416,14.88371050,.0044023,97.7911,350.4435,330.8621,29.0140,0,U,40012,999,65063,.1175E-3,.105E-4,0
DUCHIFAT-1,2014-033M,2026-07-16T16:46:11.491104,15.71313651,.00027866,98.0414,261.1627,236.8489,123.2505,0,U,40021,999,66037,.77546207E-3,.99153E-3,0
QB50P1,2014-033R,2026-07-17T00:01:44.720256,15.18681575,.0010459,98.0964,211.2472,119.5295,240.6982,0,U,40025,999,65755,.20647E-3,.4208E-4,0
LILACSAT-2,2015-049K,2026-07-17T16:56:00.096288,15.52415357,.0008502,97.4621,236.7225,134.2405,225.9546,0,U,40908,999,60048,.17839E-3,.10807E-3,0
FOX-1A (AO-85),2015-058D,2026-07-17T16:03:20.236608,14.91096654,.0132567,64.7726,184.2446,44.8704,316.3033,0,U,40967,999,11811,.14739E-3,.1551E-4,0
CAS-2T & KS-1Q,2016-066G,2026-07-17T03:49:43.427424,14.44772533,.03421437,98.3813,273.5527,38.8094,323.7141,0,U,41847,999,50912,.74643151E-4,.472E-5,0
RADFXSAT (FOX-1B),2017-073E,2026-07-17T13:35:01.969728,15.13080744,.0148332,97.4662,65.1618,223.2065,135.7454,0,U,43017,999,46998,.16851E-3,.3831E-4,0
DIWATA-2B,2018-084H,2026-07-17T17:04:38.719200,15.00568417,.0012683,98.1211,36.2564,76.7086,283.5550,0,U,43678,999,42079,.76984E-4,.907E-5,0
ES'HAIL 2,2018-090A,2026-07-17T17:46:23.742048,1.00272417,.0002319,0.0138,73.7247,84.7094,69.4946,0,U,43700,999,2798,0,.135E-5,0
FOX-1CLIFF (AO-95),2018-099N,2026-07-17T10:01:18.671808,15.27300598,.0007428,97.4364,258.5624,230.6707,129.3874,0,U,43770,999,41783,.21739E-3,.5742E-4,0
ITASAT,2018-099AE,2026-07-17T13:59:11.536224,15.19397594,.00109949,97.4008,249.4921,240.9559,119.0575,0,U,43786,999,41752,.14271187E-3,.2956E-4,0
JY1SAT (JO-97),2018-099AX,2026-07-17T14:54:41.063904,15.34566538,.0007057,97.4108,261.5784,150.8964,209.2673,0,U,43803,999,41829,.27313E-3,.9074E-4,0
UWE-4,2018-111E,2026-07-17T17:51:45.092160,15.47920542,.0006528,97.5840,128.5854,184.7413,175.3776,0,U,43880,999,41550,.35266E-3,.18314E-3,0
TIANYAN 01,2019-093C,2026-07-17T16:06:55.683648,14.86561363,.0013376,97.7519,270.1585,353.2868,6.8167,0,U,44881,999,35594,.34819E-4,.255E-5,0
RS-44 & BREEZE-KM R/B,2019-096E,2026-07-17T13:46:14.270592,12.79748887,.0218494,82.5243,319.5142,73.4624,289.0355,0,U,44909,999,30623,.2815E-4,.2E-6,0
SALSAT,2020-068K,2026-07-16T23:14:24.421344,15.30186484,.0009384,97.8858,202.8562,186.4299,173.6821,0,U,46495,999,31991,.13663E-3,.3909E-4,0
XW-3 (CAS-9),2021-131B,2026-07-17T17:42:07.878816,14.41383414,.0004443,98.4991,290.9625,23.9506,336.1889,0,U,50466,999,23951,.12324E-3,.355E-5,0
GREENCUBE (IO-117),2022-080E,2026-07-17T05:19:51.690720,6.42583336,.0009072,70.1407,287.8015,282.9900,76.9746,0,U,53109,999,9399,0,-.3E-7,0
UMKA 1 (RS40S),2023-091G,2026-07-17T16:27:17.600832,15.21136434,.0012789,97.5031,257.2692,21.1531,339.0231,0,U,57172,999,16864,.13595E-3,.2961E-4,0
CUBESX-HSE 3 (RS42S),2023-091N,2026-07-17T14:51:45.722016,15.31918639,.0009405,97.5072,264.6042,353.1084,7.0026,0,U,57178,999,16908,.2132E-3,.6498E-4,0
MONITOR-3 (RS58S),2023-091Q,2026-07-17T17:05:51.080064,15.28400028,.0010719,97.5063,262.3921,0.6984,359.4268,0,U,57180,999,16895,.18964E-3,.5174E-4,0
MONITOR-4 (RS57S),2023-091S,2026-07-17T16:33:14.444064,15.28486920,.0010732,97.5057,262.3422,1.0952,359.0309,0,U,57182,999,16895,.18589E-3,.5084E-4,0
MONITOR-2 (RS39S),2023-091U,2026-07-17T16:19:06.904128,15.19166555,.0011141,97.5053,256.7680,15.6720,344.4857,0,U,57184,999,16858,.10862E-3,.2217E-4,0
SVYATOBOR 1 (RS60S),2023-091X,2026-07-17T15:56:48.447168,15.27085867,.0008487,97.5071,262.6576,355.7821,4.3345,0,U,57187,999,16896,.16699E-3,.4364E-4,0
VIZARD-METEO (RS38S),2023-091Z,2026-07-17T16:35:20.349600,15.36920620,.0005461,97.5074,268.8059,329.1302,30.9620,0,U,57189,999,16937,.2408E-3,.8613E-4,0
POLYTECH-UNIVERSE 3 (RS46S),2023-091AB,2026-07-17T16:52:17.108256,15.19379612,.0015838,97.5028,256.2951,29.4144,330.7979,0,U,57191,999,16858,.12232E-3,.2525E-4,0
UTMN 2 (RS27S),2023-091AP,2026-07-17T14:53:29.903136,15.32735350,.0006504,97.5069,266.2761,340.7544,19.3451,0,U,57203,999,16920,.20584E-3,.643E-4,0
